NORAD_CAT_ID,OBJECT_NAME,OBJECT_TYPE,EPOCH,MEAN_MOTION,ECCENTRICITY,INCLINATION,RA_OF_ASC_NODE,ARG_OF_PERICENTER,MEAN_ANOMALY,BSTAR,MEAN_MOTION_DOT,MEAN_MOTION_DDOT,TLE_LINE0,TLE_LINE1,TLE_LINE2,SEMIMAJOR_AXIS,PERIOD,APOGEE,PERIGEE,DECAYED
52462.0,STARLINK-3903,PAYLOAD,2023-12-15 15:38:35,15.08836431,0.0001469,53.2174,117.9754,100.2898,259.826,-7.0808e-07,-2.99e-06,0.0,0 STARLINK-3903,1 52462U 22049M   23349.65180232 -.00000299  00000-0 -70808-6 0  9995,2 52462  53.2174 117.9754 0001469 100.2898 259.8260 15.08836431 89205,6917.891,95.438,540.773,538.74,0.0
52462.0,STARLINK-3903,PAYLOAD,2023-12-16 13:53:59,15.08842234,0.0001378,53.2169,113.8125,96.449,263.6659,4.8985e-05,4.92e-06,0.0,0 STARLINK-3903,1 52462U 22049M   23350.57916036  .00000492  00000-0  48985-4 0  9999,2 52462  53.2169 113.8125 0001378  96.4490 263.6659 15.08842234 89347,6917.874,95.437,540.692,538.785,0.0
52462.0,STARLINK-3903,PAYLOAD,2023-12-17 12:09:23,15.08835572,0.000138,53.2162,109.6552,92.2727,267.8423,7.7518e-05,9.46e-06,0.0,0 STARLINK-3903,1 52462U 22049M   23351.50652748  .00000946  00000-0  77518-4 0  9998,2 52462  53.2162 109.6552 0001380  92.2727 267.8423 15.08835572 89642,6917.894,95.438,540.714,538.804,0.0
52462.0,STARLINK-3903,PAYLOAD,2023-12-17 13:44:47,15.08836779,0.0001406,53.2164,109.3596,96.0058,264.1095,8.7486e-05,1.105e-05,0.0,0 STARLINK-3903,1 52462U 22049M   23351.57276689  .00001105  00000-0  87486-4 0  9994,2 52462  53.2164 109.3596 0001406  96.0058 264.1095 15.08836779 89495,6917.89,95.438,540.728,538.783,0.0
52462.0,STARLINK-3903,PAYLOAD,2023-12-18 12:00:10,15.0884659,0.0001965,53.218,105.2124,129.1202,230.9965,0.00015115,2.119e-05,0.0,0 STARLINK-3903,1 52462U 22049M   23352.50011860  .00002119  00000-0  15115-3 0  9991,2 52462  53.2180 105.2124 0001965 129.1202 230.9965 15.08846590 89796,6917.86,95.437,541.085,538.366,0.0
52462.0,STARLINK-3903,PAYLOAD,2023-12-18 13:35:33,15.08847455,0.0001487,53.2172,104.9051,87.2302,272.886,0.00015695,2.211e-05,0.0,0 STARLINK-3903,1 52462U 22049M   23352.56635933  .00002211  00000-0  15695-3 0  9996,2 52462  53.2172 104.9051 0001487  87.2302 272.8860 15.08847455 89640,6917.858,95.437,540.751,538.694,0.0
52462.0,STARLINK-3903,PAYLOAD,2023-12-18 15:10:56,15.0885046,0.0001837,53.2163,104.5955,59.5767,300.5407,0.00020342,2.952e-05,0.0,0 STARLINK-3903,1 52462U 22049M   23352.63259913  .00002952  00000-0  20342-3 0  9991,2 52462  53.2163 104.5955 0001837  59.5767 300.5407 15.08850460 89652,6917.848,95.437,540.984,538.443,0.0
52462.0,STARLINK-3903,PAYLOAD,2023-12-19 11:50:57,15.08841334,0.0001514,53.2167,100.7294,69.3436,290.7719,6.3912e-06,-1.86e-06,0.0,0 STARLINK-3903,1 52462U 22049M   23353.49372285 -.00000186  00000-0  63912-5 0  9994,2 52462  53.2167 100.7294 0001514  69.3436 290.7719 15.08841334 89942,6917.876,95.437,540.789,538.694,0.0
52462.0,STARLINK-3903,PAYLOAD,2023-12-19 13:26:20,15.08842494,0.0001455,53.2161,100.433,74.8282,285.2871,4.2961e-05,3.96e-06,0.0,0 STARLINK-3903,1 52462U 22049M   23353.55996220  .00000396  00000-0  42961-4 0  9994,2 52462  53.2161 100.4330 0001455  74.8282 285.2871 15.08842494 89797,6917.873,95.437,540.744,538.731,0.0
52462.0,STARLINK-3903,PAYLOAD,2023-12-20 11:41:45,15.08835494,0.0001358,53.2166,96.268,74.2835,285.8307,-8.5112e-05,-1.642e-05,0.0,0 STARLINK-3903,1 52462U 22049M   23354.48732734 -.00001642  00000-0 -85112-4 0  9997,2 52462  53.2166  96.2680 0001358  74.2835 285.8307 15.08835494 90099,6917.894,95.438,540.699,538.82,0.0
52462.0,STARLINK-3903,PAYLOAD,2023-12-20 13:17:08,15.08838566,0.0001452,53.2161,95.9701,73.5528,286.5624,-1.5515e-05,-5.35e-06,0.0,0 STARLINK-3903,1 52462U 22049M   23354.55356770 -.00000535  00000-0 -15515-4 0  9997,2 52462  53.2161  95.9701 0001452  73.5528 286.5624 15.08838566 89945,6917.885,95.438,540.754,538.745,0.0
52462.0,STARLINK-3903,PAYLOAD,2023-12-21 13:07:55,15.08849542,0.0001549,53.2164,91.5096,76.8399,283.2766,0.00037588,5.701e-05,0.0,0 STARLINK-3903,1 52462U 22049M   23355.54716732  .00005701  00000-0  37588-3 0  9996,2 52462  53.2164  91.5096 0001549  76.8399 283.2766 15.08849542 90091,6917.851,95.437,540.788,538.645,0.0
52462.0,STARLINK-3903,PAYLOAD,2023-12-22 11:23:19,15.08847658,0.0001444,53.2156,87.3469,102.819,257.2963,0.00022473,3.291e-05,0.0,0 STARLINK-3903,1 52462U 22049M   23356.47452613  .00003291  00000-0  22473-3 0  9993,2 52462  53.2156  87.3469 0001444 102.8190 257.2963 15.08847658 90391,6917.857,95.437,540.721,538.723,0.0
52462.0,STARLINK-3903,PAYLOAD,2023-12-22 12:58:42,15.0885046,0.0001415,53.2159,87.0497,96.2175,263.8979,0.00027426,4.081e-05,0.0,0 STARLINK-3903,1 52462U 22049M   23356.54076532  .00004081  00000-0  27426-3 0  9994,2 52462  53.2159  87.0497 0001415  96.2175 263.8979 15.08850460 90248,6917.848,95.437,540.692,538.735,0.0
52462.0,STARLINK-3903,PAYLOAD,2023-12-23 11:14:06,15.08841951,0.0001394,53.2163,82.889,90.3325,269.7827,6.2891e-05,7.13e-06,0.0,0 STARLINK-3903,1 52462U 22049M   23357.46812880  .00000713  00000-0  62891-4 0  9994,2 52462  53.2163  82.8890 0001394  90.3325 269.7827 15.08841951 90546,6917.874,95.437,540.704,538.775,0.0
52462.0,STARLINK-3903,PAYLOAD,2023-12-23 12:49:29,15.08844876,0.000153,53.2169,82.5893,93.7794,266.3373,0.00023096,3.39e-05,0.0,0 STARLINK-3903,1 52462U 22049M   23357.53436932  .00003390  00000-0  23096-3 0  9999,2 52462  53.2169  82.5893 0001530  93.7794 266.3373 15.08844876 90392,6917.865,95.437,540.789,538.672,0.0
52462.0,STARLINK-3903,PAYLOAD,2023-12-24 11:04:53,15.08845221,0.0001389,53.216,78.4285,96.7086,263.4064,0.00026023,3.857e-05,0.0,0 STARLINK-3903,1 52462U 22049M   23358.46173046  .00003857  00000-0  26023-3 0  9997,2 52462  53.2160  78.4285 0001389  96.7086 263.4064 15.08845221 90537,6917.864,95.437,540.69,538.769,0.0
52462.0,STARLINK-3903,PAYLOAD,2023-12-24 15:51:02,15.08855636,0.0001476,53.2163,77.5338,108.7751,251.3401,0.00047732,7.32e-05,0.0,0 STARLINK-3903,1 52462U 22049M   23358.66044616  .00007320  00000-0  47732-3 0  9998,2 52462  53.2163  77.5338 0001476 108.7751 251.3401 15.08855636 90722,6917.833,95.437,540.719,538.677,0.0
52462.0,STARLINK-3903,PAYLOAD,2023-12-25 10:55:40,15.08838864,0.0001449,53.2159,73.9682,82.4989,277.6168,5.3037e-05,5.56e-06,0.0,0 STARLINK-3903,1 52462U 22049M   23359.45533243  .00000556  00000-0  53037-4 0  9995,2 52462  53.2159  73.9682 0001449  82.4989 277.6168 15.08838864 90848,6917.884,95.438,540.751,538.746,0.0
52462.0,STARLINK-3903,PAYLOAD,2023-12-25 12:31:03,15.08844302,0.0001639,53.2171,73.6694,65.2221,294.8942,0.00022264,3.257e-05,0.0,0 STARLINK-3903,1 52462U 22049M   23359.52157182  .00003257  00000-0  22264-3 0  9995,2 52462  53.2171  73.6694 0001639  65.2221 294.8942 15.08844302 90699,6917.867,95.437,540.866,538.598,0.0
52462.0,STARLINK-3903,PAYLOAD,2023-12-26 13:57:14,15.0883492,0.0001527,53.2157,68.9131,77.8827,282.2337,1.9789e-05,2.7e-07,0.0,0 STARLINK-3903,1 52462U 22049M   23360.58141700  .00000027  00000-0  19789-4 0  9993,2 52462  53.2157  68.9131 0001527  77.8827 282.2337 15.08834920 90855,6917.896,95.438,540.817,538.705,0.0
52462.0,STARLINK-3903,PAYLOAD,2023-12-27 12:12:38,15.08847457,0.0001635,53.2159,64.7522,69.7485,290.3683,0.00060693,9.386e-05,0.0,0 STARLINK-3903,1 52462U 22049M   23361.50877829  .00009386  00000-0  60693-3 0  9990,2 52462  53.2159  64.7522 0001635  69.7485 290.3683 15.08847457 90993,6917.858,95.437,540.854,538.592,0.0
52462.0,STARLINK-3903,PAYLOAD,2023-12-28 10:28:02,15.08843029,0.0001866,53.2174,60.5902,66.8274,293.2914,0.00022762,3.337e-05,0.0,0 STARLINK-3903,1 52462U 22049M   23362.43614011  .00003337  00000-0  22762-3 0  9990,2 52462  53.2174  60.5902 0001866  66.8274 293.2914 15.08843029 91290,6917.871,95.437,541.027,538.445,0.0
52462.0,STARLINK-3903,PAYLOAD,2023-12-28 13:38:48,15.08848143,0.0001609,53.2175,59.9896,77.1815,282.9357,0.00027317,4.063e-05,0.0,0 STARLINK-3903,1 52462U 22049M   23362.56861668  .00004063  00000-0  27317-3 0  9994,2 52462  53.2175  59.9896 0001609  77.1815 282.9357 15.08848143 91159,6917.855,95.437,540.834,538.607,0.0
52462.0,STARLINK-3903,PAYLOAD,2023-12-29 03:57:17,15.08837844,0.0001753,53.2166,57.319,73.7832,286.3353,4.319e-05,3.99e-06,0.0,0 STARLINK-3903,1 52462U 22049M   23363.16478115  .00000399  00000-0  43190-4 0  9998,2 52462  53.2166  57.3190 0001753  73.7832 286.3353 15.08837844 91407,6917.887,95.438,540.965,538.539,0.0
52462.0,STARLINK-3903,PAYLOAD,2023-12-29 10:18:49,15.08840276,0.0001595,53.2165,56.1274,84.3157,275.8017,0.00011866,1.601e-05,0.0,0 STARLINK-3903,1 52462U 22049M   23363.42974061  .00001601  00000-0  11866-3 0  9999,2 52462  53.2165  56.1274 0001595  84.3157 275.8017 15.08840276 91287,6917.88,95.438,540.848,538.641,0.0
52462.0,STARLINK-3903,PAYLOAD,2023-12-30 10:09:36,15.08850476,0.0001587,53.2166,51.6658,90.5902,269.5272,0.00021894,3.199e-05,0.0,0 STARLINK-3903,1 52462U 22049M   23364.42333682  .00003199  00000-0  21894-3 0  9994,2 52462  53.2166  51.6658 0001587  90.5902 269.5272 15.08850476 91592,6917.848,95.437,540.811,538.616,0.0
52462.0,STARLINK-3903,PAYLOAD,2023-12-30 13:20:22,15.08852588,0.0001522,53.2161,51.0696,95.8821,264.2345,0.00031608,4.748e-05,0.0,0 STARLINK-3903,1 52462U 22049M   23364.55581561  .00004748  00000-0  31608-3 0  9994,2 52462  53.2161  51.0696 0001522  95.8821 264.2345 15.08852588 91454,6917.842,95.437,540.76,538.654,0.0
52462.0,STARLINK-3903,PAYLOAD,2023-12-30 22:52:41,15.08838717,0.0001713,53.2153,49.2829,112.7765,247.3409,4.4101e-05,4.14e-06,0.0,0 STARLINK-3903,1 52462U 22049M   23364.95325962  .00000414  00000-0  44101-4 0  9998,2 52462  53.2153  49.2829 0001713 112.7765 247.3409 15.08838717 91675,6917.884,95.438,540.934,538.564,0.0
52462.0,STARLINK-3903,PAYLOAD,2023-12-31 10:00:24,15.08828294,0.0001606,53.2171,47.2069,95.9298,264.1877,-4.9461e-05,-1.075e-05,0.0,0 STARLINK-3903,1 52462U 22049M   23365.41694950 -.00001075  00000-0 -49461-4 0  9996,2 52462  53.2171  47.2069 0001606  95.9298 264.1877 15.08828294 91746,6917.916,95.438,540.892,538.67,0.0
